CORAL                   
1 67684U 98067YA  26085.01669137  .00078154  00000+0  10528-2 0  9997
2 67684  51.6305 349.9356 0012456 234.0650 125.9187 15.57054021  7336
GXIBA-1                 
1 67685U 98067YB  26085.45427601  .00042430  00000+0  65257-3 0  9992
2 67685  51.6322 348.3572 0011846 243.4143 116.5634 15.53722996  7390
UITMSAT-2               
1 67686U 98067YC  26085.44107224  .00052259  00000+0  77644-3 0  9991
2 67686  51.6330 348.2726 0008857 214.4638 145.5779 15.54615006  7391
HMU-SAT2                
1 67687U 98067YD  26085.00850953  .00040708  00000+0  63411-3 0  9991
2 67687  51.6326 350.6331 0008474 215.7508 144.2916 15.53428839  7249
LEOPARD                 
1 67688U 98067YE  26085.44709575  .00047747  00000+0  72108-3 0  9996
2 67688  51.6330 348.3116 0008628 214.7699 145.2729 15.54208821  7310
CREW DRAGON 12          
1 67796U 26031A   26085.42232068  .00012562  00000+0  23936-3 0  9996
2 67796  51.6341 349.6418 0006244 234.7318 125.3087 15.48556416558869
PROGRESS-MS 33          
1 68319U 26058A   26085.42232068  .00012562  00000+0  23936-3 0  9997
2 68319  51.6341 349.6418 0006244 234.7318 125.3087 15.48556416   379
