CCSDS_OMM_VERS = 2.0
CREATION_DATE  = 
ORIGINATOR     = 

OBJECT_NAME    = CORAL
OBJECT_ID      = 1998-067YA
CENTER_NAME    = EARTH
REF_FRAME      = TEME
TIME_SYSTEM    = UTC
MEAN_ELEMENT_THEORY = SGP/SGP4

EPOCH          = 2026-03-26T00:24:02.134368
MEAN_MOTION    = 15.57054021
ECCENTRICITY   = .00124562
INCLINATION    = 51.6305
RA_OF_ASC_NODE = 349.9356
ARG_OF_PERICENTER = 234.0650
MEAN_ANOMALY   = 125.9187

EPHEMERIS_TYPE = 0
CLASSIFICATION_TYPE = U
NORAD_CAT_ID   = 67684
ELEMENT_SET_NO = 999
REV_AT_EPOCH   = 733
BSTAR          = .1052792E-2
MEAN_MOTION_DOT = .78154E-3
MEAN_MOTION_DDOT = 0

CCSDS_OMM_VERS = 2.0
CREATION_DATE  = 
ORIGINATOR     = 

OBJECT_NAME    = GXIBA-1
OBJECT_ID      = 1998-067YB
CENTER_NAME    = EARTH
REF_FRAME      = TEME
TIME_SYSTEM    = UTC
MEAN_ELEMENT_THEORY = SGP/SGP4

EPOCH          = 2026-03-26T10:54:09.447264
MEAN_MOTION    = 15.53722996
ECCENTRICITY   = .0011846
INCLINATION    = 51.6322
RA_OF_ASC_NODE = 348.3572
ARG_OF_PERICENTER = 243.4143
MEAN_ANOMALY   = 116.5634

EPHEMERIS_TYPE = 0
CLASSIFICATION_TYPE = U
NORAD_CAT_ID   = 67685
ELEMENT_SET_NO = 999
REV_AT_EPOCH   = 739
BSTAR          = .65257E-3
MEAN_MOTION_DOT = .4243E-3
MEAN_MOTION_DDOT = 0

CCSDS_OMM_VERS = 2.0
CREATION_DATE  = 
ORIGINATOR     = 

OBJECT_NAME    = UITMSAT-2
OBJECT_ID      = 1998-067YC
CENTER_NAME    = EARTH
REF_FRAME      = TEME
TIME_SYSTEM    = UTC
MEAN_ELEMENT_THEORY = SGP/SGP4

EPOCH          = 2026-03-26T10:35:08.641536
MEAN_MOTION    = 15.54615006
ECCENTRICITY   = .0008857
INCLINATION    = 51.6330
RA_OF_ASC_NODE = 348.2726
ARG_OF_PERICENTER = 214.4638
MEAN_ANOMALY   = 145.5779

EPHEMERIS_TYPE = 0
CLASSIFICATION_TYPE = U
NORAD_CAT_ID   = 67686
ELEMENT_SET_NO = 999
REV_AT_EPOCH   = 739
BSTAR          = .77644E-3
MEAN_MOTION_DOT = .52259E-3
MEAN_MOTION_DDOT = 0

CCSDS_OMM_VERS = 2.0
CREATION_DATE  = 
ORIGINATOR     = 

OBJECT_NAME    = HMU-SAT2
OBJECT_ID      = 1998-067YD
CENTER_NAME    = EARTH
REF_FRAME      = TEME
TIME_SYSTEM    = UTC
MEAN_ELEMENT_THEORY = SGP/SGP4

EPOCH          = 2026-03-26T00:12:15.223392
MEAN_MOTION    = 15.53428839
ECCENTRICITY   = .00084745
INCLINATION    = 51.6326
RA_OF_ASC_NODE = 350.6331
ARG_OF_PERICENTER = 215.7508
MEAN_ANOMALY   = 144.2916

EPHEMERIS_TYPE = 0
CLASSIFICATION_TYPE = U
NORAD_CAT_ID   = 67687
ELEMENT_SET_NO = 999
REV_AT_EPOCH   = 724
BSTAR          = .63411311E-3
MEAN_MOTION_DOT = .40708E-3
MEAN_MOTION_DDOT = 0

CCSDS_OMM_VERS = 2.0
CREATION_DATE  = 
ORIGINATOR     = 

OBJECT_NAME    = LEOPARD
OBJECT_ID      = 1998-067YE
CENTER_NAME    = EARTH
REF_FRAME      = TEME
TIME_SYSTEM    = UTC
MEAN_ELEMENT_THEORY = SGP/SGP4

EPOCH          = 2026-03-26T10:43:49.072800
MEAN_MOTION    = 15.54208821
ECCENTRICITY   = .0008628
INCLINATION    = 51.6330
RA_OF_ASC_NODE = 348.3116
ARG_OF_PERICENTER = 214.7699
MEAN_ANOMALY   = 145.2729

EPHEMERIS_TYPE = 0
CLASSIFICATION_TYPE = U
NORAD_CAT_ID   = 67688
ELEMENT_SET_NO = 999
REV_AT_EPOCH   = 731
BSTAR          = .72108E-3
MEAN_MOTION_DOT = .47747E-3
MEAN_MOTION_DDOT = 0

CCSDS_OMM_VERS = 2.0
CREATION_DATE  = 
ORIGINATOR     = 

OBJECT_NAME    = CREW DRAGON 12
OBJECT_ID      = 2026-031A
CENTER_NAME    = EARTH
REF_FRAME      = TEME
TIME_SYSTEM    = UTC
MEAN_ELEMENT_THEORY = SGP/SGP4

EPOCH          = 2026-03-26T10:08:08.506752
MEAN_MOTION    = 15.48556416
ECCENTRICITY   = .0006244
INCLINATION    = 51.6341
RA_OF_ASC_NODE = 349.6418
ARG_OF_PERICENTER = 234.7318
MEAN_ANOMALY   = 125.3087

EPHEMERIS_TYPE = 0
CLASSIFICATION_TYPE = U
NORAD_CAT_ID   = 67796
ELEMENT_SET_NO = 999
REV_AT_EPOCH   = 55886
BSTAR          = .23936E-3
MEAN_MOTION_DOT = .12562E-3
MEAN_MOTION_DDOT = 0

CCSDS_OMM_VERS = 2.0
CREATION_DATE  = 
ORIGINATOR     = 

OBJECT_NAME    = PROGRESS-MS 33
OBJECT_ID      = 2026-058A
CENTER_NAME    = EARTH
REF_FRAME      = TEME
TIME_SYSTEM    = UTC
MEAN_ELEMENT_THEORY = SGP/SGP4

EPOCH          = 2026-03-26T10:08:08.506752
MEAN_MOTION    = 15.48556416
ECCENTRICITY   = .0006244
INCLINATION    = 51.6341
RA_OF_ASC_NODE = 349.6418
ARG_OF_PERICENTER = 234.7318
MEAN_ANOMALY   = 125.3087

EPHEMERIS_TYPE = 0
CLASSIFICATION_TYPE = U
NORAD_CAT_ID   = 68319
ELEMENT_SET_NO = 999
REV_AT_EPOCH   = 37
BSTAR          = .23936E-3
MEAN_MOTION_DOT = .12562E-3
MEAN_MOTION_DDOT = 0

